KUIPER-00074            
1 64821U 25151F   25317.75446817  .00011786  00000+0  15697-2 0  9997
2 64821  51.9008  83.2474 0012207 242.1432 117.8294 14.79962405 18271
KUIPER-00075            
1 64822U 25151G   25317.83052014  .00074224  00000+0  18135-2 0  9995
2 64822  51.8784  64.4662 0004864 226.0233 134.0354 15.40148041 18541
KUIPER-00076            
1 64823U 25151H   25317.75167466  .00008113  00000+0  10896-2 0  9995
2 64823  51.8995  85.7550 0003758 236.5505 123.5098 14.80022406 18241
KUIPER-00077            
1 64824U 25151J   25317.81399990  .00010859  00000+0  14491-2 0  9997
2 64824  51.9009  90.4838 0006281 187.0345 173.0530 14.79984727 18182
KUIPER-00078            
1 64825U 25151K   25317.78284412  .00008598  00000+0  11542-2 0  9997
2 64825  51.8996  88.1191 0007272 255.8205 104.1949 14.79965255 18211
KUIPER-00079            
1 64826U 25151L   25317.79345810  .00006681  00000+0  94600-3 0  9997
2 64826  51.8983  92.8791 0011989 212.3170 147.7058 14.77988583 19341
KUIPER-00080            
1 64827U 25151M   25317.64234193  .00008886  00000+0  11916-2 0  9990
2 64827  51.8989  93.7319 0005124 227.5671 132.4858 14.79982814 18129
KUIPER-00082            
1 64828U 25151N   25317.75714089  .00005585  00000+0  76052-3 0  9996
2 64828  51.9018  80.7334 0005143 243.6975 116.3460 14.79956990 18311
KUIPER-00083            
1 64829U 25151P   25317.74909954  .00011807  00000+0  15745-2 0  9998
2 64829  51.8995  88.2683 0010527 217.5442 142.4786 14.79918938 19396
KUIPER-00084            
1 64830U 25151Q   25317.80580243  .00009154  00000+0  12258-2 0  9991
2 64830  51.9007  98.0053 0011795 188.2776 171.7994 14.79981290 18076
KUIPER-00085            
1 64831U 25151R   25317.79092683  .00007743  00000+0  10418-2 0  9994
2 64831  51.9028  80.5962 0007278 222.3316 137.7085 14.79992904 18310
KUIPER-00086            
1 64832U 25151S   25317.77990381  .00010542  00000+0  14043-2 0  9994
2 64832  51.9008  90.6318 0011019 210.9916 149.0397 14.80061392 18179
KUIPER-00087            
1 64833U 25151T   25318.00002315 -.00035195  00000+0 -41644-2 0  9993
2 64833  51.8978  72.2329 0000889 260.2804  52.9803 14.84168294  5397
KUIPER-00089            
1 64834U 25151U   25317.37242602  .00009063  00000+0  12213-2 0  9991
2 64834  51.9009  79.7705 0001438 264.2471  95.8327 14.79757234 18291
KUIPER-00090            
1 64835U 25151V   25318.00002315 -.00017272  00000+0 -12426-2 0  9997
2 64835  51.8942  69.9413 0004571 295.3024 345.9478 15.03277516  5722
KUIPER-00091            
1 64836U 25151W   25317.72837876  .00314639  00000+0  40573-1 0  9992
2 64836  51.9000  75.8658 0005604 260.2838  99.7491 14.78694457 18370
KUIPER-00092            
1 64837U 25151X   25318.00002315 -.00026677  00000+0 -35976-2 0  9993
2 64837  51.9001  82.1164 0006218 211.9539 221.9448 14.78570020  5688
KUIPER-00093            
1 64838U 25151Y   25317.85304399  .00008954  00000+0  12004-2 0  9996
2 64838  51.8987  85.3052 0013956 223.8749 136.1105 14.79934935 18258
KUIPER-00094            
1 64839U 25151Z   25317.62572587  .00019204  00000+0  13891-2 0  9993
2 64839  51.8900  76.0968 0005322 245.3794 114.6625 15.04019635 18364
KUIPER-00081            
1 65132U 25171A   25318.00002315 -.00576633  00000+0 -19609-1 0  9990
2 65132  51.8759 308.2374 0005066  92.6761 248.1089 15.32337735  5162
KUIPER-00088            
1 65133U 25171B   25318.00002315  .00021832  00000+0  26078-2 0  9994
2 65133  51.8992 317.1671 0008477  95.9017 132.3989 14.84112106  1304
KUIPER-00095            
1 65134U 25171C   25318.00002315 -.00527687  00000+0 -21286-1 0  9991
2 65134  51.8780 308.9907 0004544  93.0574 218.1450 15.26625279  1446
KUIPER-00096            
1 65135U 25171D   25318.00002315 -.01548708  00000+0 -11278+0 0  9998
2 65135  51.8867 311.3799 0012146 111.9239 103.2805 15.06793921  5704
KUIPER-00097            
1 65136U 25171E   25318.00002315 -.00886474  00000+0 -79267-1 0  9997
2 65136  51.8947 313.3179 0010299 115.5160 137.3615 14.98377139  5782
KUIPER-00098            
1 65137U 25171F   25318.00002315  .00024784  00000+0  25174-2 0  9993
2 65137  51.8950 314.9301 0008458 112.9515 146.1538 14.90651230  4993
KUIPER-00099            
1 65138U 25171G   25318.00002315 -.00731329  00000+0 -35563-1 0  9998
2 65138  51.8864 309.5741 0008092 110.8554 326.1472 15.20341302  5639
KUIPER-00100            
1 65139U 25171H   25318.00002315 -.00500933  00000+0 -20689-1 0  9997
2 65139  51.8816 308.9499 0004335  85.6621 279.4579 15.25731793  3706
KUIPER-00102            
1 65140U 25171J   25318.00002315 -.00638475  00000+0 -30522-1 0  9999
2 65140  51.8877 309.5979 0008594  98.0937 273.8703 15.20981788  5675
KUIPER-00103            
1 65141U 25171K   25317.41130057 -.00015793  00000+0 -20449-2 0  9999
2 65141  51.9002 324.7646 0006460 109.6873 250.4787 14.79964872 15497
KUIPER-00104            
1 65142U 25171L   25317.37015007  .00038397  00000+0  21294-2 0  9994
2 65142  51.8889 314.4990 0005251 107.3946 252.7605 15.13397297 15631
KUIPER-00105            
1 65143U 25171M   25318.00002315 -.01478682  00000+0 -19048+0 0  9993
2 65143  51.8975 317.2339 0013185  89.5012 329.2072 14.83953125  3781
KUIPER-00106            
1 65144U 25171N   25317.39903933  .00016524  00000+0  14727-2 0  9993
2 65144  51.8946 323.0476 0009833  72.0206 288.1834 14.96076771 15525
KUIPER-00107            
1 65145U 25171P   25318.00002315  .00086576  00000+0  27684-2 0  9997
2 65145  51.8781 308.4370 0006876  99.6402 128.9066 15.31664365  5822
KUIPER-00108            
1 65146U 25171Q   25318.00002315 -.01653457  00000+0 -14557+0 0  9991
2 65146  51.8924 313.0448 0009042  87.9582  28.4185 14.99417223  5746
KUIPER-00109            
1 65147U 25171R   25318.00002315 -.00561612  00000+0 -32350-1 0  9995
2 65147  51.8941 310.3619 0012859  97.8458 320.8133 15.14165225  5054
KUIPER-00110            
1 65148U 25171S   25318.00002315 -.00921525  00000+0 -11808+0 0  9992
2 65148  51.9127 319.3851 0011389  89.2617 339.1338 14.83736721  5115
KUIPER-00111            
1 65149U 25171T   25317.98250945  .00008870  00000+0  11880-2 0  9993
2 65149  51.8980 324.7328 0010124  97.1222 263.0892 14.80016969 15547
KUIPER-00112            
1 65150U 25171U   25318.00002315  .00012287  00000+0  67115-3 0  9995
2 65150  51.8919 310.2034 0007963 121.7063 316.7390 15.14653712  4424
KUIPER-00114            
1 65151U 25171V   25317.43958512  .00013187  00000+0  17549-2 0  9996
2 65151  51.9014 329.6653 0006587  84.4783 275.6931 14.79933743 15429
KUIPER-00115            
1 65152U 25171W   25317.98794012 -.00013404  00000+0 -17281-2 0  9997
2 65152  51.9037 319.7182 0010741 112.4930 247.7171 14.79994761 15619
KUIPER-00116            
1 65153U 25171X   25317.47303948  .00007931  00000+0  11191-2 0  9996
2 65153  51.8998 327.0123 0010363  69.2449 290.9622 14.77923975 15467
KUIPER-00118            
1 65154U 25171Y   25317.47303825  .00009204  00000+0  12312-2 0  9992
2 65154  51.9011 329.4891 0001995 100.3680 259.7507 14.80052476 15433
KUIPER-00119            
1 65155U 25171Z   25318.00002315 -.00084979  00000+0 -92004-2 0  9993
2 65155  51.8955 315.0041 0008414  95.2773   9.6197 14.88211400  5861
KUIPER-00120            
1 65762U 25217A   25317.91670139 -.01234265  00000+0 -91240-1 0  9998
2 65762  51.8848 206.8779 0013535 270.9532 213.9654 15.05999534  5641
KUIPER-00132            
1 65763U 25217B   25317.11853943  .00057684  00000+0  15911-2 0  9994
2 65763  51.8628 207.9333 0005250 271.6573  88.3812 15.36532072  7482
KUIPER-00133            
1 65764U 25217C   25317.91670139 -.01087920  00000+0 -73332-1 0  9996
2 65764  51.8815 206.7716 0010097 293.3597 335.1962 15.09030954  5361
KUIPER-00139            
1 65765U 25217D   25317.91670139  .00023861  00000+0  10463-2 0  9995
2 65765  51.8711 205.1181 0007200 265.8139  74.4245 15.21839235  5117
KUIPER-00142            
1 65766U 25217E   25317.41307023  .00113102  00000+0  29685-2 0  9994
2 65766  51.8694 206.1886 0001266 183.5533 176.5445 15.37751717  7530
KUIPER-00145            
1 65767U 25217F   25317.42094169  .00114765  00000+0  30679-2 0  9991
2 65767  51.8707 206.2420 0002795 238.2281 121.8433 15.37175535  7535
KUIPER-00147            
1 65768U 25217G   25316.73437012  .00098164  00000+0  27233-2 0  9999
2 65768  51.8641 209.8636 0005146 262.5126  97.5275 15.36100801  7426
KUIPER-00148            
1 65769U 25217H   25317.86316277  .00096960  00000+0  27353-2 0  9999
2 65769  51.8599 204.6507 0008936 286.5713  73.4290 15.35559990  7591
KUIPER-00150            
1 65770U 25217J   25317.91670139  .00009812  00000+0  53694-3 0  9995
2 65770  51.8720 205.8939 0007295 276.2073 339.4791 15.14822446  5396
KUIPER-00151            
1 65771U 25217K   25317.91670139 -.00777681  00000+0 -26061-1 0  9990
2 65771  51.8715 203.9953 0004690 232.0624 284.6620 15.32743204  5266
KUIPER-00152            
1 65772U 25217L   25317.84534134  .00063662  00000+0  16647-2 0  9992
2 65772  51.8715 203.8430 0002243 180.6117 179.4867 15.38149680  7601
KUIPER-00153            
1 65773U 25217M   25317.91670139 -.00996898  00000+0 -54693-1 0  9997
2 65773  51.8740 206.0153 0011288 277.9277 347.2097 15.16538741  3379
KUIPER-00155            
1 65774U 25217N   25317.69980624  .00099172  00000+0  27193-2 0  9999
2 65774  51.8648 205.0894 0004939 253.4748 106.5696 15.36460941  7570
KUIPER-00156            
1 65775U 25217P   25317.72281134  .00100157  00000+0  26058-2 0  9999
2 65775  51.8718 204.5232 0002668 150.6272 209.4865 15.38087180  7580
KUIPER-00158            
1 65776U 25217Q   25317.91670139 -.00771248  00000+0 -31151-1 0  9994
2 65776  51.8721 204.3929 0005153 227.6192 104.9417 15.26707485  2811
KUIPER-00163            
1 65777U 25217R   25317.91670139 -.00576033  00000+0 -27823-1 0  9991
2 65777  51.8675 205.1025 0010224 294.0465 359.5157 15.20364284  1348
